{
  "links" : {
    "next" : "https://api.nasa.gov/neo/rest/v1/feed?start_date=2000-08-16&end_date=2000-08-16&detailed=true&api_key=t0TVs3DtDT2H8Oy2Zy8m2eVrNsAVKAexjcZXUckd",
    "prev" : "https://api.nasa.gov/neo/rest/v1/feed?start_date=2000-08-14&end_date=2000-08-14&detailed=true&api_key=t0TVs3DtDT2H8Oy2Zy8m2eVrNsAVKAexjcZXUckd",
    "self" : "https://api.nasa.gov/neo/rest/v1/feed?start_date=2000-08-15&end_date=2000-08-15&detailed=true&api_key=t0TVs3DtDT2H8Oy2Zy8m2eVrNsAVKAexjcZXUckd"
  },
  "element_count" : 9,
  "near_earth_objects" : {
    "2000-08-15" : [ {
      "links" : {
        "self" : "https://api.nasa.gov/neo/rest/v1/neo/3046125?api_key=t0TVs3DtDT2H8Oy2Zy8m2eVrNsAVKAexjcZXUckd"
      },
      "neo_reference_id" : "3046125",
      "name" : "(2000 QV7)",
      "nasa_jpl_url" : "http://ssd.jpl.nasa.gov/sbdb.cgi?sstr=3046125",
      "absolute_magnitude_h" : 21.4,
      "estimated_diameter" : {
        "kilometers" : {
          "estimated_diameter_min" : 0.1394938229,
          "estimated_diameter_max" : 0.3119176705
        },
        "meters" : {
          "estimated_diameter_min" : 139.4938229344,
          "estimated_diameter_max" : 311.9176705226
        },
        "miles" : {
          "estimated_diameter_min" : 0.0866774163,
          "estimated_diameter_max" : 0.1938165949
        },
        "feet" : {
          "estimated_diameter_min" : 457.6569140361,
          "estimated_diameter_max" : 1023.3519701574
        }
      },
      "is_potentially_hazardous_asteroid" : true,
      "close_approach_data" : [ {
        "close_approach_date" : "2000-08-15",
        "epoch_date_close_approach" : 966322800000,
        "relative_velocity" : {
          "kilometers_per_second" : "15.7935865533",
          "kilometers_per_hour" : "56856.9115918091",
          "miles_per_hour" : "35328.6737610327"
        },
        "miss_distance" : {
          "astronomical" : "0.0383479144",
          "lunar" : "14.917339325",
          "kilometers" : "5736766.5",
          "miles" : "3564661.5"
        },
        "orbiting_body" : "Earth"
      } ],
      "orbital_data" : {
        "orbit_id" : "25",
        "orbit_determination_date" : "2017-04-06 09:16:53",
        "orbit_uncertainty" : "0",
        "minimum_orbit_intersection" : ".0166242",
        "jupiter_tisserand_invariant" : "4.569",
        "epoch_osculation" : "2458000.5",
        "eccentricity" : ".5230569625431785",
        "semi_major_axis" : "1.409088238844204",
        "inclination" : "9.124310242446818",
        "ascending_node_longitude" : "154.8052363787387",
        "orbital_period" : "610.9500601449524",
        "perihelion_distance" : ".6720548246790379",
        "perihelion_argument" : "79.49314380302799",
        "aphelion_distance" : "2.14612165300937",
        "perihelion_time" : "2457822.117137687719",
        "mean_anomaly" : "105.1114233742524",
        "mean_motion" : ".5892461978227603",
        "equinox" : "J2000"
      }
    }, {
      "links" : {
        "self" : "https://api.nasa.gov/neo/rest/v1/neo/3137736?api_key=t0TVs3DtDT2H8Oy2Zy8m2eVrNsAVKAexjcZXUckd"
      },
      "neo_reference_id" : "3137736",
      "name" : "(2002 TY59)",
      "nasa_jpl_url" : "http://ssd.jpl.nasa.gov/sbdb.cgi?sstr=3137736",
      "absolute_magnitude_h" : 25.5,
      "estimated_diameter" : {
        "kilometers" : {
          "estimated_diameter_min" : 0.0211132445,
          "estimated_diameter_max" : 0.0472106499
        },
        "meters" : {
          "estimated_diameter_min" : 21.113244479,
          "estimated_diameter_max" : 47.2106498806
        },
        "miles" : {
          "estimated_diameter_min" : 0.0131191578,
          "estimated_diameter_max" : 0.0293353287
        },
        "feet" : {
          "estimated_diameter_min" : 69.2691770164,
          "estimated_diameter_max" : 154.8905885541
        }
      },
      "is_potentially_hazardous_asteroid" : false,
      "close_approach_data" : [ {
        "close_approach_date" : "2000-08-15",
        "epoch_date_close_approach" : 966322800000,
        "relative_velocity" : {
          "kilometers_per_second" : "5.8523130892",
          "kilometers_per_hour" : "21068.3271210224",
          "miles_per_hour" : "13091.0391491709"
        },
        "miss_distance" : {
          "astronomical" : "0.2036184841",
          "lunar" : "79.2075881958",
          "kilometers" : "30460892",
          "miles" : "18927520"
        },
        "orbiting_body" : "Earth"
      } ],
      "orbital_data" : {
        "orbit_id" : "17",
        "orbit_determination_date" : "2017-04-06 09:14:47",
        "orbit_uncertainty" : "6",
        "minimum_orbit_intersection" : ".00277645",
        "jupiter_tisserand_invariant" : "5.963",
        "epoch_osculation" : "2458000.5",
        "eccentricity" : ".2334692518954883",
        "semi_major_axis" : "1.018567987164902",
        "inclination" : "6.610513706423017",
        "ascending_node_longitude" : "9.802023413328852",
        "orbital_period" : "375.4771049212962",
        "perihelion_distance" : ".7807636811968187",
        "perihelion_argument" : "259.1745027880588",
        "aphelion_distance" : "1.256372293132985",
        "perihelion_time" : "2458109.202686697564",
        "mean_anomaly" : "255.7780202888117",
        "mean_motion" : ".9587801633749669",
        "equinox" : "J2000"
      }
    }, {
      "links" : {
        "self" : "https://api.nasa.gov/neo/rest/v1/neo/3596030?api_key=t0TVs3DtDT2H8Oy2Zy8m2eVrNsAVKAexjcZXUckd"
      },
      "neo_reference_id" : "3596030",
      "name" : "(2012 BV13)",
      "nasa_jpl_url" : "http://ssd.jpl.nasa.gov/sbdb.cgi?sstr=3596030",
      "absolute_magnitude_h" : 22.2,
      "estimated_diameter" : {
        "kilometers" : {
          "estimated_diameter_min" : 0.096506147,
          "estimated_diameter_max" : 0.2157943048
        },
        "meters" : {
          "estimated_diameter_min" : 96.5061469579,
          "estimated_diameter_max" : 215.7943048444
        },
        "miles" : {
          "estimated_diameter_min" : 0.059966121,
          "estimated_diameter_max" : 0.134088323
        },
        "feet" : {
          "estimated_diameter_min" : 316.6212271853,
          "estimated_diameter_max" : 707.9865871058
        }
      },
      "is_potentially_hazardous_asteroid" : false,
      "close_approach_data" : [ {
        "close_approach_date" : "2000-08-15",
        "epoch_date_close_approach" : 966322800000,
        "relative_velocity" : {
          "kilometers_per_second" : "7.821798766",
          "kilometers_per_hour" : "28158.4755577625",
          "miles_per_hour" : "17496.5816597664"
        },
        "miss_distance" : {
          "astronomical" : "0.1395369293",
          "lunar" : "54.2798652649",
          "kilometers" : "20874428",
          "miles" : "12970768"
        },
        "orbiting_body" : "Earth"
      } ],
      "orbital_data" : {
        "orbit_id" : "10",
        "orbit_determination_date" : "2017-04-06 08:51:22",
        "orbit_uncertainty" : "5",
        "minimum_orbit_intersection" : ".00935383",
        "jupiter_tisserand_invariant" : "6.345",
        "epoch_osculation" : "2458000.5",
        "eccentricity" : ".1011988189121481",
        "semi_major_axis" : ".9430805333643814",
        "inclination" : "12.21539597506036",
        "ascending_node_longitude" : "295.5281875526888",
        "orbital_period" : "334.5196221219757",
        "perihelion_distance" : ".8476418972488673",
        "perihelion_argument" : "306.0132427688978",
        "aphelion_distance" : "1.038519169479895",
        "perihelion_time" : "2458063.483871417392",
        "mean_anomaly" : "292.2186436585367",
        "mean_motion" : "1.076170054588707",
        "equinox" : "J2000"
      }
    } ]
  }
}